OBJECT_NAME,OBJECT_ID,EPOCH,MEAN_MOTION,ECCENTRICITY,INCLINATION,RA_OF_ASC_NODE,ARG_OF_PERICENTER,MEAN_ANOMALY,EPHEMERIS_TYPE,CLASSIFICATION_TYPE,NORAD_CAT_ID,ELEMENT_SET_NO,REV_AT_EPOCH,BSTAR,MEAN_MOTION_DOT,MEAN_MOTION_DDOT
PERSEUS-M1,2014-033AF,2026-05-20T06:29:45.749760,14.95528553,.00126192,97.9635,83.9492,36.7240,323.4843,0,U,40039,999,64646,.11148379E-3,.1176E-4,0
POLYITAN-1,2014-033AJ,2026-05-20T07:20:59.294112,15.32192125,.00057976,98.0962,163.9521,233.5703,126.5003,0,U,40042,999,64932,.41718928E-3,.12892E-3,0
TIGRISAT,2014-033AK,2026-05-20T03:42:14.480064,14.85027277,.00498562,97.7800,290.8168,165.0739,195.1962,0,U,40043,999,64146,.1655112E-3,.1389E-4,0
AEROCUBE 6A,2014-033AM,2026-05-19T23:13:18.480864,14.97764196,.00400774,97.7226,307.2283,109.2697,251.2867,0,U,40045,999,64239,.29407924E-3,.3448E-4,0
AEROCUBE 6B,2014-033AN,2026-05-20T04:44:17.541600,14.99188741,.00386597,97.7181,307.1864,101.8070,258.7493,0,U,40046,999,64256,.35662583E-3,.435E-4,0
CANX-4,2014-034C,2026-05-20T04:27:00.853920,14.81206191,.00141199,98.3156,14.4664,100.0392,260.2413,0,U,40055,999,64038,.79736497E-4,.564E-5,0
CANX-5,2014-034D,2026-05-20T04:25:13.416384,14.81223276,.00141135,98.3159,14.5070,100.2391,260.0413,0,U,40056,999,63119,.803444E-4,.569E-5,0
UKUBE-1,2014-037F,2026-05-20T06:21:36.254016,15.13049410,.00005287,98.4245,140.6158,135.5990,224.5281,0,U,40074,999,64433,.32261129E-3,.5626E-4,0
BRITE-PL2 (HEWELIUSZ),2014-049B,2026-05-20T06:05:00.125952,14.94474540,.00137112,97.9068,252.0453,196.6097,163.4675,0,U,40119,999,63727,.14965493E-3,.1557E-4,0
AEROCUBE 5C,2015-058B,2026-05-20T00:10:11.722368,14.91278612,.01299512,64.7680,350.2467,74.3559,287.1849,0,U,40965,999,36145,.18855441E-3,.2033E-4,0
AEROCUBE 7,2015-058C,2026-05-20T05:12:38.476800,14.95489567,.0119728,64.7629,332.4093,72.9256,288.4932,0,U,40966,999,36177,.24304275E-3,.2933E-4,0
FOX-1A (AO-85),2015-058D,2026-05-19T23:28:52.394880,14.90787539,.01292541,64.7763,6.6371,67.6636,293.8116,0,U,40967,999,10936,.197453E-3,.2104E-4,0
SINOD-D 1,2015-058E,2026-05-19T23:56:50.689824,14.95666796,.01177654,64.7759,347.1758,64.4013,296.9216,0,U,40968,999,11244,.24574367E-3,.2968E-4,0
SNAP-3 ALICE,2015-058G,2026-05-20T07:06:47.022048,15.54216611,.00334502,64.7513,199.8792,26.2611,334.0218,0,U,40970,999,11254,.91631457E-3,.61803E-3,0
LMRST-SAT,2015-058H,2026-05-20T01:27:29.869632,14.90413776,.01310125,64.7769,2.6661,69.6512,291.8619,0,U,40971,999,10936,.19854727E-3,.2104E-4,0
SNAP-3 EDDIE,2015-058J,2026-05-20T07:23:11.734080,15.55372152,.00337357,64.7432,190.7654,30.0386,330.2683,0,U,40972,999,11468,.82960631E-3,.58376E-3,0
PROPCUBE 3,2015-058K,2026-05-20T03:57:44.309088,14.94049414,.01231267,64.7690,340.0744,71.0923,290.3491,0,U,40973,999,11061,.21588624E-3,.2502E-4,0
BISONSAT,2015-058L,2026-05-19T17:32:34.600992,15.15567997,.00785744,64.7603,265.5963,59.3035,301.5801,0,U,40974,999,11130,.3871829E-3,.7776E-4,0
SNAP-3 JIMI,2015-058M,2026-05-19T21:28:20.059104,15.01986603,.0105121,64.7653,309.2669,67.1249,294.0925,0,U,40975,999,10997,.28983E-3,.4103E-4,0
PROPCUBE 1 (FLORA),2015-058N,2026-05-20T01:22:03.089280,14.89044934,.01298063,64.7760,22.4084,71.9318,289.5884,0,U,40976,999,11207,.19660485E-3,.1997E-4,0
SINOD-D 3,2015-058P,2026-05-20T01:23:40.736832,14.93780341,.01182804,64.7734,3.6432,69.3837,291.9915,0,U,40977,999,11055,.24499535E-3,.281E-4,0
HORYU-4,2016-012D,2026-05-20T01:45:16.471584,15.80017003,.00044022,30.9886,282.7817,84.7285,275.3874,0,U,41340,999,56634,.85162266E-3,.168826E-2,0
RAVAN,2016-067B,2026-05-20T05:06:45.224352,15.51874524,.00071628,97.9926,26.6137,100.8341,259.3716,0,U,41849,999,52335,.60777888E-3,.36445E-3,0
CELTEE 1,2016-067C,2026-05-20T03:42:29.223360,15.19373973,.00014392,98.0704,4.8110,56.1866,303.9504,0,U,41850,999,52162,.17225425E-3,.3565E-4,0
OPTICUBE 04,2016-067D,2026-05-20T00:58:52.887360,15.09525931,.00149244,98.0725,350.8547,208.4717,151.5697,0,U,41851,999,52092,.83133081E-4,.1264E-4,0
AEROCUBE 8D,2016-067E,2026-05-20T04:31:27.587136,15.23960852,.00024235,98.0712,8.2341,208.2335,151.8769,0,U,41852,999,52180,.22118094E-3,.527E-4,0
AEROCUBE 8C,2016-067F,2026-05-20T03:39:21.465792,15.24200198,.00061199,98.0583,5.4594,144.8910,215.2730,0,U,41853,999,52179,.21629832E-3,.5191E-4,0
CORVUS BC2,2017-042X,2026-05-20T03:49:42.300768,15.06092319,.00125272,97.4041,302.6080,201.1021,158.9691,0,U,42846,999,48284,.10574942E-3,.1488E-4,0
CORVUS BC1,2017-042Y,2026-05-20T00:35:12.497280,15.06262625,.00120066,97.4071,303.2738,177.4369,182.6922,0,U,42847,999,48285,.11145623E-3,.1579E-4,0
MAKERSAT 0,2017-073D,2026-05-20T05:10:47.771616,15.30827686,.01103136,97.4657,22.5369,13.6755,346.7432,0,U,43016,999,46218,.53752151E-3,.19291E-3,0
